[{"OBJECT_NAME":"STARLINK-3044","OBJECT_ID":"2021-104AG","EPOCH":"2026-03-09T16:26:48.595488","MEAN_MOTION":15.08823972,"ECCENTRICITY":0.00012566,"INCLINATION":53.2183,"RA_OF_ASC_NODE":209.075,"ARG_OF_PERICENTER":84.3371,"MEAN_ANOMALY":275.7764,"EPHEMERIS_TYPE":0,"CLASSIFICATION_TYPE":"U","NORAD_CAT_ID":49438,"ELEMENT_SET_NO":999,"REV_AT_EPOCH":23891,"BSTAR":-9.1469672e-5,"MEAN_MOTION_DOT":-1.743e-5,"MEAN_MOTION_DDOT":0},{"OBJECT_NAME":"CZ-6A DEB","OBJECT_ID":"2022-151RK","EPOCH":"2026-03-09T04:16:52.342176","MEAN_MOTION":15.00981633,"ECCENTRICITY":0.00383954,"INCLINATION":98.6273,"RA_OF_ASC_NODE":143.4522,"ARG_OF_PERICENTER":188.2396,"MEAN_ANOMALY":171.8199,"EPHEMERIS_TYPE":0,"CLASSIFICATION_TYPE":"U","NORAD_CAT_ID":54922,"ELEMENT_SET_NO":999,"REV_AT_EPOCH":17321,"BSTAR":0.0056092635,"MEAN_MOTION_DOT":0.00073321,"MEAN_MOTION_DDOT":0}]
